HST                     
1 20580U 90037B   26068.15977042  .00009063  00000+0  30023-3 0  9999
2 20580  28.4717  43.6133 0001837 120.9992 239.0785 15.29473555773239
STARLINK-35542          
1 66064U 25235G   26068.71973560  .00047021  00000+0  15886-2 0  9992
2 66064  53.1570 245.3063 0001241  97.4324 262.6818 15.30221861 22922
